start=new Date('2021-10-24T00:00:00.000Z').valueOf();
sats=[{"TIME_SYSTEM":"UTC","OBJECT_ID":"2020-006AG","DECAY_DATE":null,"MEAN_MOTION_DDOT":"0.0000000000000","MEAN_MOTION":"15.06392935","SITE":"AFETR","ARG_OF_PERICENTER":"66.8679","FILE":"3181152","ELEMENT_SET_NO":"999","APOAPSIS":"548.381","OBJECT_NAME":"STARLINK-1172","EPHEMERIS_TYPE":"0","CLASSIFICATION_TYPE":"U","INCLINATION":"53.0549","CENTER_NAME":"EARTH","COUNTRY_CODE":"US","MEAN_ANOMALY":"293.2484","NORAD_CAT_ID":"45074","GP_ID":"188022525","REF_FRAME":"TEME","BSTAR":"0.00016051000000","ECCENTRICITY":"0.00016550","RCS_SIZE":"LARGE","SEMIMAJOR_AXIS":"6925.370","TLE_LINE1":"1 45074U 20006AG  21296.57382954  .00002110  00000-0  16051-3 0  9991","RA_OF_ASC_NODE":"240.8504","PERIOD":"95.593","TLE_LINE2":"2 45074  53.0549 240.8504 0001655  66.8679 293.2484 15.06392935 95863","EPOCH":"2021-10-23T13:46:18.872256","OBJECT_TYPE":"PAYLOAD","MEAN_MOTION_DOT":"0.00002110","REV_AT_EPOCH":"9586","LAUNCH_DATE":"2020-01-29","MEAN_ELEMENT_THEORY":"SGP4","PERIAPSIS":"546.089"},{"OBJECT_TYPE":"PAYLOAD","MEAN_MOTION_DOT":"-0.00000211","EPOCH":"2021-10-23T12:58:31.502496","TLE_LINE2":"2 45075  53.0553 240.9996 0001710  68.4755 291.6416 15.06399319 95860","LAUNCH_DATE":"2020-01-29","MEAN_ELEMENT_THEORY":"SGP4","PERIAPSIS":"546.031","REV_AT_EPOCH":"9586","RA_OF_ASC_NODE":"240.9996","TLE_LINE1":"1 45075U 20006AH  21296.54064239 -.00000211  00000-0  47387-5 0  9991","RCS_SIZE":"LARGE","ECCENTRICITY":"0.00017100","SEMIMAJOR_AXIS":"6925.351","PERIOD":"95.592","CENTER_NAME":"EARTH","CLASSIFICATION_TYPE":"U","INCLINATION":"53.0553","EPHEMERIS_TYPE":"0","BSTAR":"0.00000473870000","GP_ID":"188023277","REF_FRAME":"TEME","MEAN_ANOMALY":"291.6416","NORAD_CAT_ID":"45075","COUNTRY_CODE":"US","MEAN_MOTION_DDOT":"0.0000000000000","MEAN_MOTION":"15.06399319","OBJECT_ID":"2020-006AH","DECAY_DATE":null,"TIME_SYSTEM":"UTC","ELEMENT_SET_NO":"999","FILE":"3181152","APOAPSIS":"548.400","OBJECT_NAME":"STARLINK-1174","ARG_OF_PERICENTER":"68.4755","SITE":"AFETR"},{"TIME_SYSTEM":"UTC","OBJECT_ID":"2020-006AJ","DECAY_DATE":null,"MEAN_MOTION_DDOT":"0.0000000000000","MEAN_MOTION":"15.06399368","SITE":"AFETR","ARG_OF_PERICENTER":"73.3474","APOAPSIS":"548.434","FILE":"3181152","ELEMENT_SET_NO":"999","OBJECT_NAME":"STARLINK-1180","EPHEMERIS_TYPE":"0","CLASSIFICATION_TYPE":"U","INCLINATION":"53.0542","CENTER_NAME":"EARTH","COUNTRY_CODE":"US","NORAD_CAT_ID":"45076","MEAN_ANOMALY":"286.7708","REF_FRAME":"TEME","GP_ID":"188023028","BSTAR":"0.00016385000000","SEMIMAJOR_AXIS":"6925.350","RCS_SIZE":"LARGE","ECCENTRICITY":"0.00017590","TLE_LINE1":"1 45076U 20006AJ  21296.54802247  .00002160  00000-0  16385-3 0  9997","RA_OF_ASC_NODE":"240.9572","PERIOD":"95.592","TLE_LINE2":"2 45076  53.0542 240.9572 0001759  73.3474 286.7708 15.06399368 95868","EPOCH":"2021-10-23T13:09:09.141408","OBJECT_TYPE":"PAYLOAD","MEAN_MOTION_DOT":"0.00002160","REV_AT_EPOCH":"9586","LAUNCH_DATE":"2020-01-29","MEAN_ELEMENT_THEORY":"SGP4","PERIAPSIS":"545.997"},{"BSTAR":"0.00026559000000","GP_ID":"188021776","REF_FRAME":"TEME","NORAD_CAT_ID":"45077","MEAN_ANOMALY":"292.2054","COUNTRY_CODE":"US","CENTER_NAME":"EARTH","INCLINATION":"53.0549","CLASSIFICATION_TYPE":"U","EPHEMERIS_TYPE":"0","OBJECT_NAME":"STARLINK-1182","FILE":"3181152","ELEMENT_SET_NO":"999","APOAPSIS":"447.402","ARG_OF_PERICENTER":"67.9095","SITE":"AFETR","MEAN_MOTION":"15.39879171","MEAN_MOTION_DDOT":"0.0000000000000","DECAY_DATE":null,"OBJECT_ID":"2020-006AK","TIME_SYSTEM":"UTC","PERIAPSIS":"445.535","MEAN_ELEMENT_THEORY":"SGP4","LAUNCH_DATE":"2020-01-29","REV_AT_EPOCH":"9613","MEAN_MOTION_DOT":"0.00010329","OBJECT_TYPE":"PAYLOAD","EPOCH":"2021-10-23T12:31:38.995104","TLE_LINE2":"2 45077  53.0549 221.5604 0001368  67.9095 292.2054 15.39879171 96139","PERIOD":"93.514","RA_OF_ASC_NODE":"221.5604","TLE_LINE1":"1 45077U 20006AK  21296.52197911  .00010329  00000-0  26559-3 0  9991","ECCENTRICITY":"0.00013680","RCS_SIZE":"LARGE","SEMIMAJOR_AXIS":"6824.603"},{"EPHEMERIS_TYPE":"0","INCLINATION":"53.0560","CLASSIFICATION_TYPE":"U","CENTER_NAME":"EARTH","COUNTRY_CODE":"US","MEAN_ANOMALY":"290.2956","NORAD_CAT_ID":"45078","REF_FRAME":"TEME","GP_ID":"188022026","BSTAR":"0.00002466300000","TIME_SYSTEM":"UTC","DECAY_DATE":null,"OBJECT_ID":"2020-006AL","MEAN_MOTION":"15.06396823","MEAN_MOTION_DDOT":"0.0000000000000","ARG_OF_PERICENTER":"69.8222","SITE":"AFETR","OBJECT_NAME":"STARLINK-1177","FILE":"3181152","APOAPSIS":"548.444","ELEMENT_SET_NO":"999","TLE_LINE2":"2 45078  53.0560 240.8690 0001763  69.8222 290.2956 15.06396823 95853","EPOCH":"2021-10-23T13:35:41.473536","MEAN_MOTION_DOT":"0.00000086","OBJECT_TYPE":"PAYLOAD","REV_AT_EPOCH":"9585","PERIAPSIS":"546.002","MEAN_ELEMENT_THEORY":"SGP4","LAUNCH_DATE":"2020-01-29","ECCENTRICITY":"0.00017630","RCS_SIZE":"LARGE","SEMIMAJOR_AXIS":"6925.358","TLE_LINE1":"1 45078U 20006AL  21296.56645224  .00000086  00000-0  24663-4 0  9995","RA_OF_ASC_NODE":"240.8690","PERIOD":"95.592"},{"FILE":"3181152","APOAPSIS":"548.291","ELEMENT_SET_NO":"999","OBJECT_NAME":"STARLINK-1149","ARG_OF_PERICENTER":"74.7382","SITE":"AFETR","OBJECT_ID":"2020-006AM","DECAY_DATE":null,"MEAN_MOTION_DDOT":"0.0000000000000","MEAN_MOTION":"15.06389805","TIME_SYSTEM":"UTC","REF_FRAME":"TEME","GP_ID":"188022778","BSTAR":"-0.00000495200000","COUNTRY_CODE":"US","NORAD_CAT_ID":"45079","MEAN_ANOMALY":"285.3774","CLASSIFICATION_TYPE":"U","INCLINATION":"53.0533","CENTER_NAME":"EARTH","EPHEMERIS_TYPE":"0","PERIOD":"95.593","RA_OF_ASC_NODE":"240.9819","RCS_SIZE":"LARGE","SEMIMAJOR_AXIS":"6925.380","ECCENTRICITY":"0.00015100","TLE_LINE1":"1 45079U 20006AM  21296.54433354 -.00000355  00000-0 -49520-5 0  9994","REV_AT_EPOCH":"9585","LAUNCH_DATE":"2020-01-29","MEAN_ELEMENT_THEORY":"SGP4","PERIAPSIS":"546.199","OBJECT_TYPE":"PAYLOAD","MEAN_MOTION_DOT":"-0.00000355","TLE_LINE2":"2 45079  53.0533 240.9819 0001510  74.7382 285.3774 15.06389805 95855","EPOCH":"2021-10-23T13:03:50.417856"},{"NORAD_CAT_ID":"45080","MEAN_ANOMALY":"291.0518","COUNTRY_CODE":"US","BSTAR":"0.00014096000000","REF_FRAME":"TEME","GP_ID":"188023528","EPHEMERIS_TYPE":"0","CENTER_NAME":"EARTH","INCLINATION":"53.0541","CLASSIFICATION_TYPE":"U","SITE":"AFETR","ARG_OF_PERICENTER":"69.0646","OBJECT_NAME":"STARLINK-1153","FILE":"3181152","ELEMENT_SET_NO":"999","APOAPSIS":"548.353","TIME_SYSTEM":"UTC","MEAN_MOTION":"15.06397221","MEAN_MOTION_DDOT":"0.0000000000000","DECAY_DATE":null,"OBJECT_ID":"2020-006AN","PERIAPSIS":"546.091","MEAN_ELEMENT_THEORY":"SGP4","LAUNCH_DATE":"2020-01-29","REV_AT_EPOCH":"9586","EPOCH":"2021-10-23T13:14:27.503808","TLE_LINE2":"2 45080  53.0541 240.9411 0001633  69.0646 291.0518 15.06397221 95862","MEAN_MOTION_DOT":"0.00001818","OBJECT_TYPE":"PAYLOAD","PERIOD":"95.592","TLE_LINE1":"1 45080U 20006AN  21296.55170722  .00001818  00000-0  14096-3 0  9995","ECCENTRICITY":"0.00016330","RCS_SIZE":"LARGE","SEMIMAJOR_AXIS":"6925.357","RA_OF_ASC_NODE":"240.9411"},{"TIME_SYSTEM":"UTC","MEAN_MOTION_DDOT":"0.0000000000000","MEAN_MOTION":"15.06398200","OBJECT_ID":"2020-006AP","DECAY_DATE":null,"SITE":"AFETR","ARG_OF_PERICENTER":"64.1912","ELEMENT_SET_NO":"999","FILE":"3181152","APOAPSIS":"548.361","OBJECT_NAME":"STARLINK-1151","EPHEMERIS_TYPE":"0","CENTER_NAME":"EARTH","CLASSIFICATION_TYPE":"U","INCLINATION":"53.0549","NORAD_CAT_ID":"45081","MEAN_ANOMALY":"295.9247","COUNTRY_CODE":"US","BSTAR":"0.00001460100000","GP_ID":"188022276","REF_FRAME":"TEME","TLE_LINE1":"1 45081U 20006AP  21296.33055377 -.00000064  00000-0  14601-4 0  9996","ECCENTRICITY":"0.00016490","RCS_SIZE":"LARGE","SEMIMAJOR_AXIS":"6925.354","RA_OF_ASC_NODE":"241.9404","PERIOD":"95.592","EPOCH":"2021-10-23T07:55:59.845728","TLE_LINE2":"2 45081  53.0549 241.9404 0001649  64.1912 295.9247 15.06398200 95830","OBJECT_TYPE":"PAYLOAD","MEAN_MOTION_DOT":"-0.00000064","LAUNCH_DATE":"2020-01-29","PERIAPSIS":"546.077","MEAN_ELEMENT_THEORY":"SGP4","REV_AT_EPOCH":"9583"},{"SITE":"AFETR","ARG_OF_PERICENTER":"72.6293","FILE":"3181152","ELEMENT_SET_NO":"999","APOAPSIS":"548.416","OBJECT_NAME":"STARLINK-1160","TIME_SYSTEM":"UTC","OBJECT_ID":"2020-006AQ","DECAY_DATE":null,"MEAN_MOTION_DDOT":"0.0000000000000","MEAN_MOTION":"15.06392601","COUNTRY_CODE":"US","MEAN_ANOMALY":"287.4882","NORAD_CAT_ID":"45082","GP_ID":"188022526","REF_FRAME":"TEME","BSTAR":"0.00000851560000","EPHEMERIS_TYPE":"0","CLASSIFICATION_TYPE":"U","INCLINATION":"53.0527","CENTER_NAME":"EARTH","PERIOD":"95.593","RCS_SIZE":"LARGE","SEMIMAJOR_AXIS":"6925.371","ECCENTRICITY":"0.00017030","TLE_LINE1":"1 45082U 20006AQ  21296.58487409 -.00000155  00000-0  85156-5 0  9994","RA_OF_ASC_NODE":"240.7958","REV_AT_EPOCH":"9586","LAUNCH_DATE":"2020-01-29","PERIAPSIS":"546.057","MEAN_ELEMENT_THEORY":"SGP4","TLE_LINE2":"2 45082  53.0527 240.7958 0001703  72.6293 287.4882 15.06392601 95868","EPOCH":"2021-10-23T14:02:13.121376","OBJECT_TYPE":"PAYLOAD","MEAN_MOTION_DOT":"-0.00000155"},{"REV_AT_EPOCH":"9559","MEAN_ELEMENT_THEORY":"SGP4","PERIAPSIS":"546.130","LAUNCH_DATE":"2020-01-29","TLE_LINE2":"2 45083  53.0545 260.6561 0001547  70.2175 289.8981 15.06403905 95595","EPOCH":"2021-10-23T14:47:20.163840","MEAN_MOTION_DOT":"0.00001125","OBJECT_TYPE":"PAYLOAD","PERIOD":"95.592","ECCENTRICITY":"0.00015470","RCS_SIZE":"LARGE","SEMIMAJOR_AXIS":"6925.337","TLE_LINE1":"1 45083U 20006AR  21296.61620560  .00001125  00000-0  94378-4 0  9998","RA_OF_ASC_NODE":"260.6561","COUNTRY_CODE":"US","NORAD_CAT_ID":"45083","MEAN_ANOMALY":"289.8981","GP_ID":"188023278","REF_FRAME":"TEME","BSTAR":"0.00009437800000","EPHEMERIS_TYPE":"0","INCLINATION":"53.0545","CLASSIFICATION_TYPE":"U","CENTER_NAME":"EARTH","SITE":"AFETR","ARG_OF_PERICENTER":"70.2175","OBJECT_NAME":"STARLINK-1190","ELEMENT_SET_NO":"999","FILE":"3181152","APOAPSIS":"548.273","TIME_SYSTEM":"UTC","DECAY_DATE":null,"OBJECT_ID":"2020-006AR","MEAN_MOTION":"15.06403905","MEAN_MOTION_DDOT":"0.0000000000000"}];
